{
  "norad_id": 49007,
  "name": "XINGSHIDAI 10",
  "history": [
    {
      "epoch": "2026-03-28T22:36:33.331680",
      "apogee_km": 316.3990653625833,
      "perigee_km": 312.6725851334859,
      "latitude_deg": 75.85323160935584,
      "longitude_deg": -108.86296480009332,
      "semi_major_axis_km": 6692.672825248034,
      "eccentricity": 0.0002784,
      "inclination_deg": 97.2969,
      "raan_deg": 165.7872,
      "arg_perigee_deg": 238.8005,
      "mean_anomaly_deg": 121.2993,
      "mean_motion_rev_day": 15.85635534
    }
  ]
}